ICEYE-X53               
1 64584U 25135BJ  26188.55819459  .00000416  00000+0  37437-4 0  9992
2 64584  97.7369 305.2524 0001654 166.5066 193.6202 15.00862751 57131
ICEYE-X65               
1 66300U 25248H   26187.95825506  .00002793  00000+0  19511-3 0  9990
2 66300  45.4051  30.2151 0004668 152.2695 207.8436 15.07893453 38503
ICEYE-X66               
1 66301U 25248J   26187.96277052  .00003178  00000+0  21261-3 0  9992
2 66301  45.4020  29.3585 0004306 147.7574 212.3572 15.09141129 38492
ICEYE-X67               
1 66302U 25248K   26187.98735860  .00002603  00000+0  17712-3 0  9999
2 66302  45.4057  28.8035 0005863 148.7145 211.4087 15.09123634 38516
ICEYE-X58               
1 66751U 25276CP  26188.16783296  .00002161  00000+0  11177-3 0  9993
2 66751  97.4212 261.2109 0001694 263.9594  96.1447 15.17296326 33448
ICEYE-X59               
1 66752U 25276CQ  26188.21134171  .00003516  00000+0  28202-3 0  9994
2 66752  97.4365 258.6546 0000327 145.9589 214.1657 15.00705313 33277
ICEYE-X60               
1 66753U 25276CR  26187.72398211  .00003684  00000+0  22322-3 0  9990
2 66753  97.4205 259.8267 0000969 312.9978  47.1171 15.11178480 33315
ICEYE-X61               
1 66754U 25276CS  26188.52233214  .00002085  00000+0  10412-3 0  9992
2 66754  97.4191 261.6336 0001594 258.2053 101.9002 15.18579737 33509
ICEYE-X62               
1 66755U 25276CT  26188.47271676  .00001957  00000+0  12385-3 0  9999
2 66755  97.4193 260.0459 0000907 327.5207  32.5967 15.10113065 33395
ICEYE-X63               
1 67372U 26004K   26188.45285191  .00000812  00000+0  93642-4 0  9995
2 67372  97.8009 186.7758 0005767  70.5920 289.5919 14.88339107 26319
ICEYE-X64               
1 67373U 26004L   26188.23068828  .00001204  00000+0  13715-3 0  9996
2 67373  97.8021 186.4794 0007563  75.0491 285.1563 14.87973563 26271
ICEYE-X71               
1 68494U 26067CG  26188.18515983  .00001915  00000+0  19552-3 0  9997
2 68494  97.7618 146.1138 0001785  14.1502 345.9766 14.91769730 14708
ICEYE-X73               
1 68496U 26067CJ  26188.34994086  .00002220  00000+0  22271-3 0  9994
2 68496  97.7612 146.3554 0000841 162.3717 197.7532 14.92324227 14730
ICEYE-X75               
1 68497U 26067CK  26188.35353715  .00001031  00000+0  10680-3 0  9994
2 68497  97.7602 146.3300 0000774 152.0853 208.0407 14.92162658 14736
ICEYE-X74               
1 68500U 26067CN  26188.45259916  .00001782  00000+0  18234-3 0  9994
2 68500  97.7624 146.3869 0001568  10.6537 349.4715 14.91771212 14749
ICEYE-X76               
1 68502U 26067CQ  26188.31414933  .00000919  00000+0  96776-4 0  9992
2 68502  97.7634 146.2681 0001253 358.0015   2.1198 14.91740363 14723
