{"fetched_at":"2026-07-07T18:29:31.841Z","source":"https://celestrak.org/NORAD/elements/gp.php?NAME=ICEYE&FORMAT=JSON","constellation":"iceye","records":[{"OBJECT_NAME":"ICEYE-X53","OBJECT_ID":"2025-135BJ","EPOCH":"2026-07-07T13:23:48.012576","CLASSIFICATION_TYPE":"U","MEAN_MOTION":15.00862751,"ECCENTRICITY":0.0001654,"INCLINATION":97.7369,"RA_OF_ASC_NODE":305.2524,"ARG_OF_PERICENTER":166.5066,"MEAN_ANOMALY":193.6202,"EPHEMERIS_TYPE":0,"NORAD_CAT_ID":64584,"ELEMENT_SET_NO":999,"REV_AT_EPOCH":5713,"BSTAR":0.000037437,"MEAN_MOTION_DOT":0.00000416,"MEAN_MOTION_DDOT":0},{"OBJECT_NAME":"ICEYE-X65","OBJECT_ID":"2025-248H","EPOCH":"2026-07-06T22:59:53.237184","CLASSIFICATION_TYPE":"U","MEAN_MOTION":15.07893453,"ECCENTRICITY":0.0004668,"INCLINATION":45.4051,"RA_OF_ASC_NODE":30.2151,"ARG_OF_PERICENTER":152.2695,"MEAN_ANOMALY":207.8436,"EPHEMERIS_TYPE":0,"NORAD_CAT_ID":66300,"ELEMENT_SET_NO":999,"REV_AT_EPOCH":3850,"BSTAR":0.00019511,"MEAN_MOTION_DOT":0.00002793,"MEAN_MOTION_DDOT":0},{"OBJECT_NAME":"ICEYE-X66","OBJECT_ID":"2025-248J","EPOCH":"2026-07-06T23:06:23.372928","CLASSIFICATION_TYPE":"U","MEAN_MOTION":15.09141129,"ECCENTRICITY":0.0004306,"INCLINATION":45.402,"RA_OF_ASC_NODE":29.3585,"ARG_OF_PERICENTER":147.7574,"MEAN_ANOMALY":212.3572,"EPHEMERIS_TYPE":0,"NORAD_CAT_ID":66301,"ELEMENT_SET_NO":999,"REV_AT_EPOCH":3849,"BSTAR":0.00021261,"MEAN_MOTION_DOT":0.00003178,"MEAN_MOTION_DDOT":0},{"OBJECT_NAME":"ICEYE-X67","OBJECT_ID":"2025-248K","EPOCH":"2026-07-06T23:41:47.783040","CLASSIFICATION_TYPE":"U","MEAN_MOTION":15.09123634,"ECCENTRICITY":0.0005863,"INCLINATION":45.4057,"RA_OF_ASC_NODE":28.8035,"ARG_OF_PERICENTER":148.7145,"MEAN_ANOMALY":211.4087,"EPHEMERIS_TYPE":0,"NORAD_CAT_ID":66302,"ELEMENT_SET_NO":999,"REV_AT_EPOCH":3851,"BSTAR":0.00017712,"MEAN_MOTION_DOT":0.00002603,"MEAN_MOTION_DDOT":0},{"OBJECT_NAME":"ICEYE-X58","OBJECT_ID":"2025-276CP","EPOCH":"2026-07-07T04:01:40.767744","CLASSIFICATION_TYPE":"U","MEAN_MOTION":15.17296326,"ECCENTRICITY":0.0001694,"INCLINATION":97.4212,"RA_OF_ASC_NODE":261.2109,"ARG_OF_PERICENTER":263.9594,"MEAN_ANOMALY":96.1447,"EPHEMERIS_TYPE":0,"NORAD_CAT_ID":66751,"ELEMENT_SET_NO":999,"REV_AT_EPOCH":3344,"BSTAR":0.00011177,"MEAN_MOTION_DOT":0.00002161,"MEAN_MOTION_DDOT":0},{"OBJECT_NAME":"ICEYE-X59","OBJECT_ID":"2025-276CQ","EPOCH":"2026-07-07T05:04:19.923744","CLASSIFICATION_TYPE":"U","MEAN_MOTION":15.00705313,"ECCENTRICITY":0.0000327,"INCLINATION":97.4365,"RA_OF_ASC_NODE":258.6546,"ARG_OF_PERICENTER":145.9589,"MEAN_ANOMALY":214.1657,"EPHEMERIS_TYPE":0,"NORAD_CAT_ID":66752,"ELEMENT_SET_NO":999,"REV_AT_EPOCH":3327,"BSTAR":0.00028202,"MEAN_MOTION_DOT":0.00003516,"MEAN_MOTION_DDOT":0},{"OBJECT_NAME":"ICEYE-X60","OBJECT_ID":"2025-276CR","EPOCH":"2026-07-06T17:22:32.054304","CLASSIFICATION_TYPE":"U","MEAN_MOTION":15.1117848,"ECCENTRICITY":0.0000969,"INCLINATION":97.4205,"RA_OF_ASC_NODE":259.8267,"ARG_OF_PERICENTER":312.9978,"MEAN_ANOMALY":47.1171,"EPHEMERIS_TYPE":0,"NORAD_CAT_ID":66753,"ELEMENT_SET_NO":999,"REV_AT_EPOCH":3331,"BSTAR":0.00022322,"MEAN_MOTION_DOT":0.00003684,"MEAN_MOTION_DDOT":0},{"OBJECT_NAME":"ICEYE-X61","OBJECT_ID":"2025-276CS","EPOCH":"2026-07-07T12:32:09.496896","CLASSIFICATION_TYPE":"U","MEAN_MOTION":15.18579737,"ECCENTRICITY":0.0001594,"INCLINATION":97.4191,"RA_OF_ASC_NODE":261.6336,"ARG_OF_PERICENTER":258.2053,"MEAN_ANOMALY":101.9002,"EPHEMERIS_TYPE":0,"NORAD_CAT_ID":66754,"ELEMENT_SET_NO":999,"REV_AT_EPOCH":3350,"BSTAR":0.00010412,"MEAN_MOTION_DOT":0.00002085,"MEAN_MOTION_DDOT":0},{"OBJECT_NAME":"ICEYE-X62","OBJECT_ID":"2025-276CT","EPOCH":"2026-07-07T11:20:42.728064","CLASSIFICATION_TYPE":"U","MEAN_MOTION":15.10113065,"ECCENTRICITY":0.0000907,"INCLINATION":97.4193,"RA_OF_ASC_NODE":260.0459,"ARG_OF_PERICENTER":327.5207,"MEAN_ANOMALY":32.5967,"EPHEMERIS_TYPE":0,"NORAD_CAT_ID":66755,"ELEMENT_SET_NO":999,"REV_AT_EPOCH":3339,"BSTAR":0.00012385,"MEAN_MOTION_DOT":0.00001957,"MEAN_MOTION_DDOT":0},{"OBJECT_NAME":"ICEYE-X63","OBJECT_ID":"2026-004K","EPOCH":"2026-07-07T10:52:06.405024","CLASSIFICATION_TYPE":"U","MEAN_MOTION":14.88339107,"ECCENTRICITY":0.0005767,"INCLINATION":97.8009,"RA_OF_ASC_NODE":186.7758,"ARG_OF_PERICENTER":70.592,"MEAN_ANOMALY":289.5919,"EPHEMERIS_TYPE":0,"NORAD_CAT_ID":67372,"ELEMENT_SET_NO":999,"REV_AT_EPOCH":2631,"BSTAR":0.000093642,"MEAN_MOTION_DOT":0.00000812,"MEAN_MOTION_DDOT":0},{"OBJECT_NAME":"ICEYE-X64","OBJECT_ID":"2026-004L","EPOCH":"2026-07-07T05:32:11.467392","CLASSIFICATION_TYPE":"U","MEAN_MOTION":14.87973563,"ECCENTRICITY":0.0007563,"INCLINATION":97.8021,"RA_OF_ASC_NODE":186.4794,"ARG_OF_PERICENTER":75.0491,"MEAN_ANOMALY":285.1563,"EPHEMERIS_TYPE":0,"NORAD_CAT_ID":67373,"ELEMENT_SET_NO":999,"REV_AT_EPOCH":2627,"BSTAR":0.00013715,"MEAN_MOTION_DOT":0.00001204,"MEAN_MOTION_DDOT":0},{"OBJECT_NAME":"ICEYE-X71","OBJECT_ID":"2026-067CG","EPOCH":"2026-07-07T04:26:37.809312","CLASSIFICATION_TYPE":"U","MEAN_MOTION":14.9176973,"ECCENTRICITY":0.0001785,"INCLINATION":97.7618,"RA_OF_ASC_NODE":146.1138,"ARG_OF_PERICENTER":14.1502,"MEAN_ANOMALY":345.9766,"EPHEMERIS_TYPE":0,"NORAD_CAT_ID":68494,"ELEMENT_SET_NO":999,"REV_AT_EPOCH":1470,"BSTAR":0.00019552,"MEAN_MOTION_DOT":0.00001915,"MEAN_MOTION_DDOT":0},{"OBJECT_NAME":"ICEYE-X73","OBJECT_ID":"2026-067CJ","EPOCH":"2026-07-07T08:23:54.890304","CLASSIFICATION_TYPE":"U","MEAN_MOTION":14.92324227,"ECCENTRICITY":0.0000841,"INCLINATION":97.7612,"RA_OF_ASC_NODE":146.3554,"ARG_OF_PERICENTER":162.3717,"MEAN_ANOMALY":197.7532,"EPHEMERIS_TYPE":0,"NORAD_CAT_ID":68496,"ELEMENT_SET_NO":999,"REV_AT_EPOCH":1473,"BSTAR":0.00022271,"MEAN_MOTION_DOT":0.0000222,"MEAN_MOTION_DDOT":0},{"OBJECT_NAME":"ICEYE-X75","OBJECT_ID":"2026-067CK","EPOCH":"2026-07-07T08:29:05.609760","CLASSIFICATION_TYPE":"U","MEAN_MOTION":14.92162658,"ECCENTRICITY":0.0000774,"INCLINATION":97.7602,"RA_OF_ASC_NODE":146.33,"ARG_OF_PERICENTER":152.0853,"MEAN_ANOMALY":208.0407,"EPHEMERIS_TYPE":0,"NORAD_CAT_ID":68497,"ELEMENT_SET_NO":999,"REV_AT_EPOCH":1473,"BSTAR":0.0001068,"MEAN_MOTION_DOT":0.00001031,"MEAN_MOTION_DDOT":0},{"OBJECT_NAME":"ICEYE-X74","OBJECT_ID":"2026-067CN","EPOCH":"2026-07-07T10:51:44.567424","CLASSIFICATION_TYPE":"U","MEAN_MOTION":14.91771212,"ECCENTRICITY":0.0001568,"INCLINATION":97.7624,"RA_OF_ASC_NODE":146.3869,"ARG_OF_PERICENTER":10.6537,"MEAN_ANOMALY":349.4715,"EPHEMERIS_TYPE":0,"NORAD_CAT_ID":68500,"ELEMENT_SET_NO":999,"REV_AT_EPOCH":1474,"BSTAR":0.00018234,"MEAN_MOTION_DOT":0.00001782,"MEAN_MOTION_DDOT":0},{"OBJECT_NAME":"ICEYE-X76","OBJECT_ID":"2026-067CQ","EPOCH":"2026-07-07T07:32:22.502112","CLASSIFICATION_TYPE":"U","MEAN_MOTION":14.91740363,"ECCENTRICITY":0.0001253,"INCLINATION":97.7634,"RA_OF_ASC_NODE":146.2681,"ARG_OF_PERICENTER":358.0015,"MEAN_ANOMALY":2.1198,"EPHEMERIS_TYPE":0,"NORAD_CAT_ID":68502,"ELEMENT_SET_NO":999,"REV_AT_EPOCH":1472,"BSTAR":0.000096776,"MEAN_MOTION_DOT":0.00000919,"MEAN_MOTION_DDOT":0}]}
